{
    "links": {
        "self": "http://www.neowsapp.com/rest/v1/neo/3733131?api_key=iIulBulltgU6a56xZRHN4H3l9WmuAYTsLGpBGhQ2"
    },
    "id": "3733131",
    "neo_reference_id": "3733131",
    "name": "(2015 VZ)",
    "designation": "2015 VZ",
    "nasa_jpl_url": "http://ssd.jpl.nasa.gov/sbdb.cgi?sstr=3733131",
    "absolute_magnitude_h": 23.1,
    "estimated_diameter": {
        "kilometers": {
            "estimated_diameter_min": 0.063760979,
            "estimated_diameter_max": 0.1425738833
        },
        "meters": {
            "estimated_diameter_min": 63.7609789875,
            "estimated_diameter_max": 142.5738833281
        },
        "miles": {
            "estimated_diameter_min": 0.0396192233,
            "estimated_diameter_max": 0.0885912765
        },
        "feet": {
            "estimated_diameter_min": 209.1895703015,
            "estimated_diameter_max": 467.7620993781
        }
    },
    "is_potentially_hazardous_asteroid": false,
    "close_approach_data": [
        {
            "close_approach_date": "1969-10-28",
            "close_approach_date_full": "1969-Oct-28 03:40",
            "epoch_date_close_approach": -5602800000,
            "relative_velocity": {
                "kilometers_per_second": "10.4910922298",
                "kilometers_per_hour": "37767.9320272811",
                "miles_per_hour": "23467.5242088403"
            },
            "miss_distance": {
                "astronomical": "0.3517527914",
                "lunar": "136.8318358546",
                "kilometers": "52621468.359994318",
                "miles": "32697464.2373368684"
            },
            "orbiting_body": "Earth"
        },
        {
            "close_approach_date": "1976-11-26",
            "close_approach_date_full": "1976-Nov-26 20:21",
            "epoch_date_close_approach": 217887660000,
            "relative_velocity": {
                "kilometers_per_second": "10.03986988",
                "kilometers_per_hour": "36143.5315678546",
                "miles_per_hour": "22458.1849344816"
            },
            "miss_distance": {
                "astronomical": "0.337115421",
                "lunar": "131.137898769",
                "kilometers": "50431748.92575327",
                "miles": "31336835.674084326"
            },
            "orbiting_body": "Earth"
        },
        {
            "close_approach_date": "2015-11-17",
            "close_approach_date_full": "2015-Nov-17 23:40",
            "epoch_date_close_approach": 1447803600000,
            "relative_velocity": {
                "kilometers_per_second": "5.2595396223",
                "kilometers_per_hour": "18934.342640444",
                "miles_per_hour": "11765.0641812248"
            },
            "miss_distance": {
                "astronomical": "0.16169891",
                "lunar": "62.90087599",
                "kilometers": "24189812.5173217",
                "miles": "15030852.50837146"
            },
            "orbiting_body": "Earth"
        },
        {
            "close_approach_date": "2061-12-03",
            "close_approach_date_full": "2061-Dec-03 17:08",
            "epoch_date_close_approach": 2900855280000,
            "relative_velocity": {
                "kilometers_per_second": "12.5512120116",
                "kilometers_per_hour": "45184.3632417042",
                "miles_per_hour": "28075.8061487134"
            },
            "miss_distance": {
                "astronomical": "0.4168692777",
                "lunar": "162.1621490253",
                "kilometers": "62362756.012358499",
                "miles": "38750419.7052413262"
            },
            "orbiting_body": "Earth"
        }
    ],
    "orbital_data": {
        "orbit_id": "20",
        "orbit_determination_date": "2017-04-06 08:31:03",
        "first_observation_date": "2015-11-01",
        "last_observation_date": "2016-01-06",
        "data_arc_in_days": 66,
        "observations_used": 107,
        "orbit_uncertainty": "6",
        "minimum_orbit_intersection": ".148442",
        "jupiter_tisserand_invariant": "3.384",
        "epoch_osculation": "2459000.5",
        "eccentricity": ".5115022615736984",
        "semi_major_axis": "2.321884491604072",
        "inclination": "5.20879822059837",
        "ascending_node_longitude": "250.3700710402006",
        "orbital_period": "1292.288093759211",
        "perihelion_distance": "1.134235323035692",
        "perihelion_argument": "162.5374011912445",
        "aphelion_distance": "3.509533660172452",
        "perihelion_time": "2458639.703384836531",
        "mean_anomaly": "100.509152785749",
        "mean_motion": ".278575653322608",
        "equinox": "J2000",
        "orbit_class": {
            "orbit_class_type": "AMO",
            "orbit_class_description": "Near-Earth asteroid orbits similar to that of 1221 Amor",
            "orbit_class_range": "1.017 AU < q (perihelion) < 1.3 AU"
        }
    },
    "is_sentry_object": false
}